[{"OBJECT_NAME":"LEMUR-2-ARIANNA","OBJECT_ID":"2025-009CU","EPOCH":"2026-04-05T04:54:10.460736","MEAN_MOTION":15.01399753,"ECCENTRICITY":0.00039395,"INCLINATION":97.6917,"RA_OF_ASC_NODE":177.2643,"ARG_OF_PERICENTER":100.0168,"MEAN_ANOMALY":260.1501,"EPHEMERIS_TYPE":0,"CLASSIFICATION_TYPE":"U","NORAD_CAT_ID":62699,"ELEMENT_SET_NO":999,"REV_AT_EPOCH":6660,"BSTAR":0.00084037716,"MEAN_MOTION_DOT":0.00010792,"MEAN_MOTION_DDOT":0},{"OBJECT_NAME":"LEMUR-2-ALISIA","OBJECT_ID":"2025-009DB","EPOCH":"2026-04-05T04:43:03.895104","MEAN_MOTION":15.01659359,"ECCENTRICITY":0.00053274,"INCLINATION":97.693,"RA_OF_ASC_NODE":177.9313,"ARG_OF_PERICENTER":103.0203,"MEAN_ANOMALY":257.1616,"EPHEMERIS_TYPE":0,"CLASSIFICATION_TYPE":"U","NORAD_CAT_ID":62706,"ELEMENT_SET_NO":999,"REV_AT_EPOCH":8920,"BSTAR":0.00086392191,"MEAN_MOTION_DOT":0.00011174,"MEAN_MOTION_DDOT":0},{"OBJECT_NAME":"LEMUR-2-ROUNDTRIPPER","OBJECT_ID":"2025-009DG","EPOCH":"2026-04-05T04:52:51.954240","MEAN_MOTION":15.02650887,"ECCENTRICITY":0.00047489,"INCLINATION":97.7246,"RA_OF_ASC_NODE":178.0612,"ARG_OF_PERICENTER":50.0857,"MEAN_ANOMALY":310.0784,"EPHEMERIS_TYPE":0,"CLASSIFICATION_TYPE":"U","NORAD_CAT_ID":62711,"ELEMENT_SET_NO":999,"REV_AT_EPOCH":6666,"BSTAR":0.00091378885,"MEAN_MOTION_DOT":0.00012137,"MEAN_MOTION_DDOT":0},{"OBJECT_NAME":"LEMUR-2-MYNAMEISJEFF","OBJECT_ID":"2025-009DH","EPOCH":"2026-04-05T04:50:36.764160","MEAN_MOTION":15.02651288,"ECCENTRICITY":0.0004169,"INCLINATION":97.7286,"RA_OF_ASC_NODE":178.3969,"ARG_OF_PERICENTER":80.0524,"MEAN_ANOMALY":280.1171,"EPHEMERIS_TYPE":0,"CLASSIFICATION_TYPE":"U","NORAD_CAT_ID":62712,"ELEMENT_SET_NO":999,"REV_AT_EPOCH":6666,"BSTAR":0.00087045205,"MEAN_MOTION_DOT":0.00011557,"MEAN_MOTION_DDOT":0},{"OBJECT_NAME":"LEMUR-2-LEIA-PHILIP","OBJECT_ID":"2025-052AN","EPOCH":"2026-04-05T05:19:11.131968","MEAN_MOTION":14.97000448,"ECCENTRICITY":0.00049459,"INCLINATION":97.6904,"RA_OF_ASC_NODE":348.3832,"ARG_OF_PERICENTER":106.6791,"MEAN_ANOMALY":253.4974,"EPHEMERIS_TYPE":0,"CLASSIFICATION_TYPE":"U","NORAD_CAT_ID":63246,"ELEMENT_SET_NO":999,"REV_AT_EPOCH":5775,"BSTAR":0.00067343474,"MEAN_MOTION_DOT":7.698e-5,"MEAN_MOTION_DDOT":0},{"OBJECT_NAME":"LEMUR-2-LIA-MARTIN","OBJECT_ID":"2025-052AQ","EPOCH":"2026-04-05T05:45:46.135584","MEAN_MOTION":14.9716045,"ECCENTRICITY":0.00048435,"INCLINATION":97.6963,"RA_OF_ASC_NODE":348.79,"ARG_OF_PERICENTER":80.9928,"MEAN_ANOMALY":279.1842,"EPHEMERIS_TYPE":0,"CLASSIFICATION_TYPE":"U","NORAD_CAT_ID":63248,"ELEMENT_SET_NO":999,"REV_AT_EPOCH":5776,"BSTAR":0.00066793795,"MEAN_MOTION_DOT":7.666e-5,"MEAN_MOTION_DDOT":0},{"OBJECT_NAME":"LEMUR-2-DELOITTE-1","OBJECT_ID":"2025-052BB","EPOCH":"2026-04-05T06:38:13.392096","MEAN_MOTION":14.97082788,"ECCENTRICITY":0.00020784,"INCLINATION":97.6998,"RA_OF_ASC_NODE":349.1471,"ARG_OF_PERICENTER":39.3327,"MEAN_ANOMALY":320.8045,"EPHEMERIS_TYPE":0,"CLASSIFICATION_TYPE":"U","NORAD_CAT_ID":63259,"ELEMENT_SET_NO":999,"REV_AT_EPOCH":5778,"BSTAR":0.00047642679,"MEAN_MOTION_DOT":5.438e-5,"MEAN_MOTION_DDOT":0},{"OBJECT_NAME":"LEMUR-2-EMERSONROSE","OBJECT_ID":"2025-052BD","EPOCH":"2026-04-05T04:33:43.280064","MEAN_MOTION":14.98557353,"ECCENTRICITY":0.00014192,"INCLINATION":97.6985,"RA_OF_ASC_NODE":349.4709,"ARG_OF_PERICENTER":61.2247,"MEAN_ANOMALY":298.9118,"EPHEMERIS_TYPE":0,"CLASSIFICATION_TYPE":"U","NORAD_CAT_ID":63261,"ELEMENT_SET_NO":999,"REV_AT_EPOCH":5780,"BSTAR":0.00058175357,"MEAN_MOTION_DOT":6.913e-5,"MEAN_MOTION_DDOT":0},{"OBJECT_NAME":"LEMUR-2-MARACHE-FRAN","OBJECT_ID":"2025-052BE","EPOCH":"2026-04-05T06:35:24.170784","MEAN_MOTION":14.9932989,"ECCENTRICITY":0.00011605,"INCLINATION":97.6985,"RA_OF_ASC_NODE":349.7803,"ARG_OF_PERICENTER":334.333,"MEAN_ANOMALY":25.7835,"EPHEMERIS_TYPE":0,"CLASSIFICATION_TYPE":"U","NORAD_CAT_ID":63262,"ELEMENT_SET_NO":999,"REV_AT_EPOCH":5783,"BSTAR":0.00062265578,"MEAN_MOTION_DOT":7.554e-5,"MEAN_MOTION_DDOT":0},{"OBJECT_NAME":"LEMUR-2-THEFALCONER","OBJECT_ID":"2025-052BG","EPOCH":"2026-04-05T05:25:29.530272","MEAN_MOTION":14.96855831,"ECCENTRICITY":9.386e-5,"INCLINATION":97.6931,"RA_OF_ASC_NODE":348.7946,"ARG_OF_PERICENTER":212.7389,"MEAN_ANOMALY":147.3775,"EPHEMERIS_TYPE":0,"CLASSIFICATION_TYPE":"U","NORAD_CAT_ID":63264,"ELEMENT_SET_NO":999,"REV_AT_EPOCH":5777,"BSTAR":0.00064747204,"MEAN_MOTION_DOT":7.37e-5,"MEAN_MOTION_DDOT":0},{"OBJECT_NAME":"LEMUR-2-UNTITLED-SC","OBJECT_ID":"2025-061A","EPOCH":"2026-04-05T03:37:38.208288","MEAN_MOTION":15.12957961,"ECCENTRICITY":0.00197063,"INCLINATION":97.5593,"RA_OF_ASC_NODE":71.0997,"ARG_OF_PERICENTER":152.4355,"MEAN_ANOMALY":207.7925,"EPHEMERIS_TYPE":0,"CLASSIFICATION_TYPE":"U","NORAD_CAT_ID":63351,"ELEMENT_SET_NO":999,"REV_AT_EPOCH":5654,"BSTAR":0.00035912903,"MEAN_MOTION_DOT":6.297e-5,"MEAN_MOTION_DDOT":0},{"OBJECT_NAME":"LEMUR-2-ESPERANZA","OBJECT_ID":"2025-061B","EPOCH":"2026-04-05T04:46:11.735616","MEAN_MOTION":15.13042202,"ECCENTRICITY":0.00193839,"INCLINATION":97.5605,"RA_OF_ASC_NODE":71.2237,"ARG_OF_PERICENTER":151.1419,"MEAN_ANOMALY":209.0888,"EPHEMERIS_TYPE":0,"CLASSIFICATION_TYPE":"U","NORAD_CAT_ID":63352,"ELEMENT_SET_NO":999,"REV_AT_EPOCH":5655,"BSTAR":0.00033807041,"MEAN_MOTION_DOT":5.936e-5,"MEAN_MOTION_DDOT":0},{"OBJECT_NAME":"LEMUR-2-KREMPEL-BRO2","OBJECT_ID":"2025-061C","EPOCH":"2026-04-05T04:19:33.750336","MEAN_MOTION":15.13466202,"ECCENTRICITY":0.0020574,"INCLINATION":97.565,"RA_OF_ASC_NODE":71.6459,"ARG_OF_PERICENTER":144.2956,"MEAN_ANOMALY":215.9655,"EPHEMERIS_TYPE":0,"CLASSIFICATION_TYPE":"U","NORAD_CAT_ID":63353,"ELEMENT_SET_NO":999,"REV_AT_EPOCH":5656,"BSTAR":0.00029408015,"MEAN_MOTION_DOT":5.22e-5,"MEAN_MOTION_DDOT":0},{"OBJECT_NAME":"LEMUR-2-THERMORAPTOR","OBJECT_ID":"2025-061D","EPOCH":"2026-04-05T03:58:46.009056","MEAN_MOTION":15.13530466,"ECCENTRICITY":0.00202532,"INCLINATION":97.5653,"RA_OF_ASC_NODE":71.694,"ARG_OF_PERICENTER":143.5902,"MEAN_ANOMALY":216.6712,"EPHEMERIS_TYPE":0,"CLASSIFICATION_TYPE":"U","NORAD_CAT_ID":63354,"ELEMENT_SET_NO":999,"REV_AT_EPOCH":5656,"BSTAR":0.00032173525,"MEAN_MOTION_DOT":5.727e-5,"MEAN_MOTION_DDOT":0},{"OBJECT_NAME":"LEMUR-2-NEUROSPICY","OBJECT_ID":"2025-061E","EPOCH":"2026-04-04T21:05:04.205760","MEAN_MOTION":15.13641566,"ECCENTRICITY":0.00179375,"INCLINATION":97.5582,"RA_OF_ASC_NODE":71.092,"ARG_OF_PERICENTER":147.6689,"MEAN_ANOMALY":212.5645,"EPHEMERIS_TYPE":0,"CLASSIFICATION_TYPE":"U","NORAD_CAT_ID":63355,"ELEMENT_SET_NO":999,"REV_AT_EPOCH":5652,"BSTAR":0.00037851594,"MEAN_MOTION_DOT":6.764e-5,"MEAN_MOTION_DDOT":0},{"OBJECT_NAME":"LEMUR-2-TILLINFINITY","OBJECT_ID":"2025-061F","EPOCH":"2026-04-05T04:57:19.260288","MEAN_MOTION":15.14225525,"ECCENTRICITY":0.0019509,"INCLINATION":97.557,"RA_OF_ASC_NODE":71.6569,"ARG_OF_PERICENTER":135.6354,"MEAN_ANOMALY":224.6445,"EPHEMERIS_TYPE":0,"CLASSIFICATION_TYPE":"U","NORAD_CAT_ID":63356,"ELEMENT_SET_NO":999,"REV_AT_EPOCH":5659,"BSTAR":0.00035920402,"MEAN_MOTION_DOT":6.527e-5,"MEAN_MOTION_DDOT":0}]
