LEMUR-2-ARIANNA         
1 62699U 25009CU  26095.20428774  .00010792  00000+0  84038-3 0  9998
2 62699  97.6917 177.2643 0003939 100.0168 260.1501 15.01399753 66609
LEMUR-2-ALISIA          
1 62706U 25009DB  26095.19657286  .00011174  00000+0  86392-3 0  9997
2 62706  97.6930 177.9313 0005327 103.0203 257.1616 15.01659359 89205
LEMUR-2-ROUNDTRIPPER    
1 62711U 25009DG  26095.20337910  .00012137  00000+0  91379-3 0  9995
2 62711  97.7246 178.0612 0004748  50.0857 310.0784 15.02650887 66666
LEMUR-2-MYNAMEISJEFF    
1 62712U 25009DH  26095.20181440  .00011557  00000+0  87045-3 0  9991
2 62712  97.7286 178.3969 0004169  80.0524 280.1171 15.02651288 66663
LEMUR-2-LEIA-PHILIP     
1 63246U 25052AN  26095.22165662  .00007698  00000+0  67343-3 0  9992
2 63246  97.6904 348.3832 0004945 106.6791 253.4974 14.97000448 57756
LEMUR-2-LIA-MARTIN      
1 63248U 25052AQ  26095.24011731  .00007666  00000+0  66794-3 0  9997
2 63248  97.6963 348.7900 0004843  80.9928 279.1842 14.97160450 57766
LEMUR-2-DELOITTE-1      
1 63259U 25052BB  26095.27654389  .00005438  00000+0  47643-3 0  9991
2 63259  97.6998 349.1471 0002078  39.3327 320.8045 14.97082788 57781
LEMUR-2-EMERSONROSE     
1 63261U 25052BD  26095.19008426  .00006913  00000+0  58175-3 0  9991
2 63261  97.6985 349.4709 0001419  61.2247 298.9118 14.98557353 57805
LEMUR-2-MARACHE-FRAN    
1 63262U 25052BE  26095.27458531  .00007554  00000+0  62266-3 0  9995
2 63262  97.6985 349.7803 0001160 334.3330  25.7835 14.99329890 57833
LEMUR-2-THEFALCONER     
1 63264U 25052BG  26095.22603623  .00007370  00000+0  64747-3 0  9998
2 63264  97.6931 348.7946 0000938 212.7389 147.3775 14.96855831 57771
LEMUR-2-UNTITLED-SC     
1 63351U 25061A   26095.15113667  .00006297  00000+0  35913-3 0  9991
2 63351  97.5593  71.0997 0019706 152.4355 207.7925 15.12957961 56547
LEMUR-2-ESPERANZA       
1 63352U 25061B   26095.19874694  .00005936  00000+0  33807-3 0  9999
2 63352  97.5605  71.2237 0019383 151.1419 209.0888 15.13042202 56557
LEMUR-2-KREMPEL-BRO2    
1 63353U 25061C   26095.18025174  .00005220  00000+0  29408-3 0  9998
2 63353  97.5650  71.6459 0020574 144.2956 215.9655 15.13466202 56560
LEMUR-2-THERMORAPTOR    
1 63354U 25061D   26095.16581029  .00005727  00000+0  32174-3 0  9999
2 63354  97.5653  71.6940 0020253 143.5902 216.6712 15.13530466 56562
LEMUR-2-NEUROSPICY      
1 63355U 25061E   26094.87852090  .00006764  00000+0  37852-3 0  9996
2 63355  97.5582  71.0920 0017937 147.6689 212.5645 15.13641566 56528
LEMUR-2-TILLINFINITY    
1 63356U 25061F   26095.20647292  .00006527  00000+0  35920-3 0  9992
2 63356  97.5570  71.6569 0019509 135.6354 224.6445 15.14225525 56597
